[{"OBJECT_NAME":"ONEWEB-0583","OBJECT_ID":"2022-166J","EPOCH":"2026-03-02T22:34:36.378048","MEAN_MOTION":13.21825668,"ECCENTRICITY":0.00014738,"INCLINATION":87.9166,"RA_OF_ASC_NODE":265.1881,"ARG_OF_PERICENTER":89.2734,"MEAN_ANOMALY":270.8569,"EPHEMERIS_TYPE":0,"CLASSIFICATION_TYPE":"U","NORAD_CAT_ID":54650,"ELEMENT_SET_NO":999,"REV_AT_EPOCH":15749,"BSTAR":1.6664976e-5,"MEAN_MOTION_DOT":2.0e-7,"MEAN_MOTION_DDOT":0},{"OBJECT_NAME":"ONEWEB-0584","OBJECT_ID":"2022-166K","EPOCH":"2026-03-02T13:58:02.381664","MEAN_MOTION":13.21826232,"ECCENTRICITY":0.0001425,"INCLINATION":87.9166,"RA_OF_ASC_NODE":265.2477,"ARG_OF_PERICENTER":78.1714,"MEAN_ANOMALY":281.9579,"EPHEMERIS_TYPE":0,"CLASSIFICATION_TYPE":"U","NORAD_CAT_ID":54651,"ELEMENT_SET_NO":999,"REV_AT_EPOCH":15743,"BSTAR":0.0004447,"MEAN_MOTION_DOT":1.97e-6,"MEAN_MOTION_DDOT":0},{"OBJECT_NAME":"ONEWEB-0585","OBJECT_ID":"2022-166L","EPOCH":"2026-03-02T14:33:33.327072","MEAN_MOTION":13.21825317,"ECCENTRICITY":0.0001752,"INCLINATION":87.9166,"RA_OF_ASC_NODE":265.2269,"ARG_OF_PERICENTER":90.8044,"MEAN_ANOMALY":269.329,"EPHEMERIS_TYPE":0,"CLASSIFICATION_TYPE":"U","NORAD_CAT_ID":54652,"ELEMENT_SET_NO":999,"REV_AT_EPOCH":15744,"BSTAR":-0.00066495,"MEAN_MOTION_DOT":-2.62e-6,"MEAN_MOTION_DDOT":0},{"OBJECT_NAME":"ONEWEB-0586","OBJECT_ID":"2022-166M","EPOCH":"2026-03-02T22:08:32.938944","MEAN_MOTION":13.21824513,"ECCENTRICITY":0.00013858,"INCLINATION":87.9167,"RA_OF_ASC_NODE":265.1895,"ARG_OF_PERICENTER":89.1612,"MEAN_ANOMALY":270.968,"EPHEMERIS_TYPE":0,"CLASSIFICATION_TYPE":"U","NORAD_CAT_ID":54653,"ELEMENT_SET_NO":999,"REV_AT_EPOCH":15748,"BSTAR":-7.1337587e-5,"MEAN_MOTION_DOT":-1.6e-7,"MEAN_MOTION_DDOT":0},{"OBJECT_NAME":"ONEWEB-0587","OBJECT_ID":"2022-166N","EPOCH":"2026-03-02T22:22:45.045120","MEAN_MOTION":13.21828167,"ECCENTRICITY":0.00019151,"INCLINATION":87.9177,"RA_OF_ASC_NODE":265.1503,"ARG_OF_PERICENTER":95.9998,"MEAN_ANOMALY":264.1354,"EPHEMERIS_TYPE":0,"CLASSIFICATION_TYPE":"U","NORAD_CAT_ID":54654,"ELEMENT_SET_NO":999,"REV_AT_EPOCH":15764,"BSTAR":2.9844897e-5,"MEAN_MOTION_DOT":2.5e-7,"MEAN_MOTION_DDOT":0},{"OBJECT_NAME":"ONEWEB-0589","OBJECT_ID":"2022-166P","EPOCH":"2026-03-02T22:03:47.049120","MEAN_MOTION":13.21826375,"ECCENTRICITY":0.00011326,"INCLINATION":87.9164,"RA_OF_ASC_NODE":265.1792,"ARG_OF_PERICENTER":57.2692,"MEAN_ANOMALY":302.8551,"EPHEMERIS_TYPE":0,"CLASSIFICATION_TYPE":"U","NORAD_CAT_ID":54655,"ELEMENT_SET_NO":999,"REV_AT_EPOCH":15750,"BSTAR":3.8671374e-5,"MEAN_MOTION_DOT":2.9e-7,"MEAN_MOTION_DDOT":0},{"OBJECT_NAME":"ONEWEB-0590","OBJECT_ID":"2022-166Q","EPOCH":"2026-03-02T22:39:08.822304","MEAN_MOTION":13.21827161,"ECCENTRICITY":0.00018658,"INCLINATION":87.9175,"RA_OF_ASC_NODE":265.1538,"ARG_OF_PERICENTER":78.6155,"MEAN_ANOMALY":281.5188,"EPHEMERIS_TYPE":0,"CLASSIFICATION_TYPE":"U","NORAD_CAT_ID":54656,"ELEMENT_SET_NO":999,"REV_AT_EPOCH":15749,"BSTAR":5.966056e-6,"MEAN_MOTION_DOT":1.5e-7,"MEAN_MOTION_DDOT":0},{"OBJECT_NAME":"ONEWEB-0591","OBJECT_ID":"2022-166R","EPOCH":"2026-03-02T22:55:55.186176","MEAN_MOTION":13.21824882,"ECCENTRICITY":0.00016514,"INCLINATION":87.9168,"RA_OF_ASC_NODE":265.1733,"ARG_OF_PERICENTER":88.9989,"MEAN_ANOMALY":271.1334,"EPHEMERIS_TYPE":0,"CLASSIFICATION_TYPE":"U","NORAD_CAT_ID":54657,"ELEMENT_SET_NO":999,"REV_AT_EPOCH":15752,"BSTAR":-0.00050919953,"MEAN_MOTION_DOT":-1.97e-6,"MEAN_MOTION_DDOT":0},{"OBJECT_NAME":"ONEWEB-0592","OBJECT_ID":"2022-166S","EPOCH":"2026-03-02T13:55:39.628992","MEAN_MOTION":13.21827459,"ECCENTRICITY":0.0001602,"INCLINATION":87.9175,"RA_OF_ASC_NODE":265.2184,"ARG_OF_PERICENTER":87.7122,"MEAN_ANOMALY":272.4195,"EPHEMERIS_TYPE":0,"CLASSIFICATION_TYPE":"U","NORAD_CAT_ID":54658,"ELEMENT_SET_NO":999,"REV_AT_EPOCH":15735,"BSTAR":0.00027947,"MEAN_MOTION_DOT":1.28e-6,"MEAN_MOTION_DDOT":0},{"OBJECT_NAME":"ONEWEB-0593","OBJECT_ID":"2022-166T","EPOCH":"2026-03-02T14:28:50.318688","MEAN_MOTION":13.21826211,"ECCENTRICITY":0.0001466,"INCLINATION":87.9168,"RA_OF_ASC_NODE":265.2334,"ARG_OF_PERICENTER":92.5244,"MEAN_ANOMALY":267.6058,"EPHEMERIS_TYPE":0,"CLASSIFICATION_TYPE":"U","NORAD_CAT_ID":54659,"ELEMENT_SET_NO":999,"REV_AT_EPOCH":15746,"BSTAR":5.0565e-5,"MEAN_MOTION_DOT":3.4e-7,"MEAN_MOTION_DDOT":0},{"OBJECT_NAME":"ONEWEB-0594","OBJECT_ID":"2022-166U","EPOCH":"2026-03-02T22:13:15.818592","MEAN_MOTION":13.2182751,"ECCENTRICITY":0.00016411,"INCLINATION":87.9166,"RA_OF_ASC_NODE":265.1871,"ARG_OF_PERICENTER":93.3171,"MEAN_ANOMALY":266.8151,"EPHEMERIS_TYPE":0,"CLASSIFICATION_TYPE":"U","NORAD_CAT_ID":54660,"ELEMENT_SET_NO":999,"REV_AT_EPOCH":15752,"BSTAR":-0.00023072758,"MEAN_MOTION_DOT":-8.2e-7,"MEAN_MOTION_DDOT":0},{"OBJECT_NAME":"ONEWEB-0595","OBJECT_ID":"2022-166V","EPOCH":"2026-03-02T14:24:05.282496","MEAN_MOTION":13.21827051,"ECCENTRICITY":0.0001788,"INCLINATION":87.917,"RA_OF_ASC_NODE":265.2243,"ARG_OF_PERICENTER":90.7146,"MEAN_ANOMALY":269.4193,"EPHEMERIS_TYPE":0,"CLASSIFICATION_TYPE":"U","NORAD_CAT_ID":54661,"ELEMENT_SET_NO":999,"REV_AT_EPOCH":15745,"BSTAR":0.00018011,"MEAN_MOTION_DOT":8.7e-7,"MEAN_MOTION_DDOT":0},{"OBJECT_NAME":"ONEWEB-0596","OBJECT_ID":"2022-166W","EPOCH":"2026-03-02T22:51:10.547424","MEAN_MOTION":13.21827337,"ECCENTRICITY":0.00016867,"INCLINATION":87.9168,"RA_OF_ASC_NODE":265.1718,"ARG_OF_PERICENTER":92.2822,"MEAN_ANOMALY":267.8505,"EPHEMERIS_TYPE":0,"CLASSIFICATION_TYPE":"U","NORAD_CAT_ID":54662,"ELEMENT_SET_NO":999,"REV_AT_EPOCH":15750,"BSTAR":-2.4068069e-5,"MEAN_MOTION_DOT":3.0e-8,"MEAN_MOTION_DDOT":0},{"OBJECT_NAME":"ONEWEB-0597","OBJECT_ID":"2022-166X","EPOCH":"2026-03-02T22:25:08.101056","MEAN_MOTION":13.21825866,"ECCENTRICITY":0.00014794,"INCLINATION":87.9166,"RA_OF_ASC_NODE":265.1804,"ARG_OF_PERICENTER":84.5339,"MEAN_ANOMALY":275.5963,"EPHEMERIS_TYPE":0,"CLASSIFICATION_TYPE":"U","NORAD_CAT_ID":54663,"ELEMENT_SET_NO":999,"REV_AT_EPOCH":15750,"BSTAR":2.2762034e-5,"MEAN_MOTION_DOT":2.2e-7,"MEAN_MOTION_DDOT":0},{"OBJECT_NAME":"ONEWEB-0600","OBJECT_ID":"2022-166Y","EPOCH":"2026-03-02T21:59:02.680800","MEAN_MOTION":13.21827917,"ECCENTRICITY":0.00013711,"INCLINATION":87.9166,"RA_OF_ASC_NODE":265.1752,"ARG_OF_PERICENTER":96.7534,"MEAN_ANOMALY":263.3756,"EPHEMERIS_TYPE":0,"CLASSIFICATION_TYPE":"U","NORAD_CAT_ID":54664,"ELEMENT_SET_NO":999,"REV_AT_EPOCH":15747,"BSTAR":-0.00032668535,"MEAN_MOTION_DOT":-1.22e-6,"MEAN_MOTION_DDOT":0},{"OBJECT_NAME":"ONEWEB-0601","OBJECT_ID":"2022-166Z","EPOCH":"2026-03-02T14:31:12.732672","MEAN_MOTION":13.21825816,"ECCENTRICITY":0.0001369,"INCLINATION":87.9165,"RA_OF_ASC_NODE":265.2547,"ARG_OF_PERICENTER":82.1083,"MEAN_ANOMALY":278.0206,"EPHEMERIS_TYPE":0,"CLASSIFICATION_TYPE":"U","NORAD_CAT_ID":54665,"ELEMENT_SET_NO":999,"REV_AT_EPOCH":15762,"BSTAR":0.00014046,"MEAN_MOTION_DOT":7.1e-7,"MEAN_MOTION_DDOT":0},{"OBJECT_NAME":"ONEWEB-0602","OBJECT_ID":"2022-166AA","EPOCH":"2026-03-02T22:45:15.509952","MEAN_MOTION":13.21827357,"ECCENTRICITY":0.00013685,"INCLINATION":87.9168,"RA_OF_ASC_NODE":265.1914,"ARG_OF_PERICENTER":99.0144,"MEAN_ANOMALY":261.1145,"EPHEMERIS_TYPE":0,"CLASSIFICATION_TYPE":"U","NORAD_CAT_ID":54666,"ELEMENT_SET_NO":999,"REV_AT_EPOCH":15751,"BSTAR":8.2465171e-5,"MEAN_MOTION_DOT":4.7e-7,"MEAN_MOTION_DDOT":0}]
