ONEWEB-0583             
1 54650U 22166J   26061.94069882  .00000020  00000+0  16665-4 0  9997
2 54650  87.9166 265.1881 0001473  89.2734 270.8569 13.21825668157493
ONEWEB-0584             
1 54651U 22166K   26061.58197201  .00000197  00000+0  44470-3 0  9994
2 54651  87.9166 265.2477 0001425  78.1714 281.9579 13.21826232157434
ONEWEB-0585             
1 54652U 22166L   26061.60663573 -.00000262  00000+0 -66495-3 0  9994
2 54652  87.9166 265.2269 0001752  90.8044 269.3290 13.21825317157448
ONEWEB-0586             
1 54653U 22166M   26061.92260346 -.00000016  00000+0 -71338-4 0  9991
2 54653  87.9167 265.1895 0001385  89.1612 270.9680 13.21824513157480
ONEWEB-0587             
1 54654U 22166N   26061.93246580  .00000025  00000+0  29845-4 0  9991
2 54654  87.9177 265.1503 0001915  95.9998 264.1354 13.21828167157649
ONEWEB-0589             
1 54655U 22166P   26061.91929455  .00000029  00000+0  38671-4 0  9990
2 54655  87.9164 265.1792 0001132  57.2692 302.8551 13.21826375157502
ONEWEB-0590             
1 54656U 22166Q   26061.94385211  .00000015  00000+0  59661-5 0  9998
2 54656  87.9175 265.1538 0001865  78.6155 281.5188 13.21827161157498
ONEWEB-0591             
1 54657U 22166R   26061.95549984 -.00000197  00000+0 -50920-3 0  9999
2 54657  87.9168 265.1733 0001651  88.9989 271.1334 13.21824882157529
ONEWEB-0592             
1 54658U 22166S   26061.58031978  .00000128  00000+0  27947-3 0  9993
2 54658  87.9175 265.2184 0001602  87.7122 272.4195 13.21827459157354
ONEWEB-0593             
1 54659U 22166T   26061.60336017  .00000034  00000+0  50565-4 0  9998
2 54659  87.9168 265.2334 0001466  92.5244 267.6058 13.21826211157462
ONEWEB-0594             
1 54660U 22166U   26061.92587753 -.00000082  00000+0 -23073-3 0  9998
2 54660  87.9166 265.1871 0001641  93.3171 266.8151 13.21827510157525
ONEWEB-0595             
1 54661U 22166V   26061.60006114  .00000087  00000+0  18011-3 0  9990
2 54661  87.9170 265.2243 0001788  90.7146 269.4193 13.21827051157457
ONEWEB-0596             
1 54662U 22166W   26061.95220541  .00000003  00000+0 -24068-4 0  9990
2 54662  87.9168 265.1718 0001686  92.2822 267.8505 13.21827337157508
ONEWEB-0597             
1 54663U 22166X   26061.93412154  .00000022  00000+0  22762-4 0  9991
2 54663  87.9166 265.1804 0001479  84.5339 275.5963 13.21825866157509
ONEWEB-0600             
1 54664U 22166Y   26061.91600325 -.00000122  00000+0 -32669-3 0  9998
2 54664  87.9166 265.1752 0001371  96.7534 263.3756 13.21827917157475
ONEWEB-0601             
1 54665U 22166Z   26061.60500848  .00000071  00000+0  14046-3 0  9994
2 54665  87.9165 265.2547 0001369  82.1083 278.0206 13.21825816157629
ONEWEB-0602             
1 54666U 22166AA  26061.94809618  .00000047  00000+0  82465-4 0  9993
2 54666  87.9168 265.1914 0001368  99.0144 261.1145 13.21827357157519
